{
    "links": {
        "self": "http://www.neowsapp.com/rest/v1/neo/3794960?api_key=iIulBulltgU6a56xZRHN4H3l9WmuAYTsLGpBGhQ2"
    },
    "id": "3794960",
    "neo_reference_id": "3794960",
    "name": "(2017 YX)",
    "designation": "2017 YX",
    "nasa_jpl_url": "http://ssd.jpl.nasa.gov/sbdb.cgi?sstr=3794960",
    "absolute_magnitude_h": 21.5,
    "estimated_diameter": {
        "kilometers": {
            "estimated_diameter_min": 0.1332155667,
            "estimated_diameter_max": 0.2978790628
        },
        "meters": {
            "estimated_diameter_min": 133.2155666981,
            "estimated_diameter_max": 297.8790627982
        },
        "miles": {
            "estimated_diameter_min": 0.0827762899,
            "estimated_diameter_max": 0.1850934111
        },
        "feet": {
            "estimated_diameter_min": 437.0589598459,
            "estimated_diameter_max": 977.2935443908
        }
    },
    "is_potentially_hazardous_asteroid": false,
    "close_approach_data": [
        {
            "close_approach_date": "2017-11-26",
            "close_approach_date_full": "2017-Nov-26 22:39",
            "epoch_date_close_approach": 1511735940000,
            "relative_velocity": {
                "kilometers_per_second": "15.181929709",
                "kilometers_per_hour": "54654.9469522848",
                "miles_per_hour": "33960.4585659905"
            },
            "miss_distance": {
                "astronomical": "0.3079307244",
                "lunar": "119.7850517916",
                "kilometers": "46065780.477797028",
                "miles": "28623948.6787658664"
            },
            "orbiting_body": "Earth"
        }
    ],
    "orbital_data": {
        "orbit_id": "1",
        "orbit_determination_date": "2017-12-23 12:42:06",
        "first_observation_date": "2017-12-20",
        "last_observation_date": "2017-12-23",
        "data_arc_in_days": 3,
        "observations_used": 29,
        "orbit_uncertainty": "9",
        "minimum_orbit_intersection": ".230998",
        "jupiter_tisserand_invariant": "3.048",
        "epoch_osculation": "2458108.5",
        "eccentricity": ".5939123853313294",
        "semi_major_axis": "2.691240239847046",
        "inclination": "15.65847385305571",
        "ascending_node_longitude": "91.15107802274522",
        "orbital_period": "1612.601756747842",
        "perihelion_distance": "1.092879329499828",
        "perihelion_argument": "295.1643261001134",
        "aphelion_distance": "4.289601150194265",
        "perihelion_time": "2458059.656699455649",
        "mean_anomaly": "10.9038627313835",
        "mean_motion": ".2232417262933022",
        "equinox": "J2000",
        "orbit_class": {
            "orbit_class_type": "AMO",
            "orbit_class_description": "Near-Earth asteroid orbits similar to that of 1221 Amor",
            "orbit_class_range": "1.017 AU < q (perihelion) < 1.3 AU"
        }
    },
    "is_sentry_object": false
}